<?xml version="1.0" encoding="UTF-8"?>
<ndm xmlns:xsi="http://www.w3.org/2001/XMLSchema-instance" xsi:noNamespaceSchemaLocation="https://sanaregistry.org/r/ndmxml_unqualified/ndmxml-2.0.0-master-2.0.xsd">
<omm id="CCSDS_OMM_VERS" version="2.0">
<header><CREATION_DATE/><ORIGINATOR/></header><body><segment><metadata><OBJECT_NAME>IRIDIUM 36</OBJECT_NAME><OBJECT_ID>1997-056C</OBJECT_ID><CENTER_NAME>EARTH</CENTER_NAME><REF_FRAME>TEME</REF_FRAME><TIME_SYSTEM>UTC</TIME_SYSTEM><MEAN_ELEMENT_THEORY>SGP4</MEAN_ELEMENT_THEORY></metadata><data><meanElements><EPOCH>2024-11-18T03:38:36.554208</EPOCH><MEAN_MOTION>14.37230777</MEAN_MOTION><ECCENTRICITY>.0002343</ECCENTRICITY><INCLINATION>86.3953</INCLINATION><RA_OF_ASC_NODE>261.6013</RA_OF_ASC_NODE><ARG_OF_PERICENTER>79.2872</ARG_OF_PERICENTER><MEAN_ANOMALY>280.8589</MEAN_ANOMALY></meanElements><tleParameters><EPHEMERIS_TYPE>0</EPHEMERIS_TYPE><CLASSIFICATION_TYPE>U</CLASSIFICATION_TYPE><NORAD_CAT_ID>24967</NORAD_CAT_ID><ELEMENT_SET_NO>999</ELEMENT_SET_NO><REV_AT_EPOCH>42190</REV_AT_EPOCH><BSTAR>.27687E-3</BSTAR><MEAN_MOTION_DOT>.844E-5</MEAN_MOTION_DOT><MEAN_MOTION_DDOT>0</MEAN_MOTION_DDOT></tleParameters></data></segment></body></omm>
<omm id="CCSDS_OMM_VERS" version="2.0">
<header><CREATION_DATE/><ORIGINATOR/></header><body><segment><metadata><OBJECT_NAME>IRIDIUM 39</OBJECT_NAME><OBJECT_ID>1997-069D</OBJECT_ID><CENTER_NAME>EARTH</CENTER_NAME><REF_FRAME>TEME</REF_FRAME><TIME_SYSTEM>UTC</TIME_SYSTEM><MEAN_ELEMENT_THEORY>SGP4</MEAN_ELEMENT_THEORY></metadata><data><meanElements><EPOCH>2024-11-18T00:20:53.759904</EPOCH><MEAN_MOTION>14.48620946</MEAN_MOTION><ECCENTRICITY>.0015892</ECCENTRICITY><INCLINATION>86.3874</INCLINATION><RA_OF_ASC_NODE>301.6808</RA_OF_ASC_NODE><ARG_OF_PERICENTER>295.6777</ARG_OF_PERICENTER><MEAN_ANOMALY>64.2785</MEAN_ANOMALY></meanElements><tleParameters><EPHEMERIS_TYPE>0</EPHEMERIS_TYPE><CLASSIFICATION_TYPE>U</CLASSIFICATION_TYPE><NORAD_CAT_ID>25042</NORAD_CAT_ID><ELEMENT_SET_NO>999</ELEMENT_SET_NO><REV_AT_EPOCH>41864</REV_AT_EPOCH><BSTAR>.31274E-3</BSTAR><MEAN_MOTION_DOT>.1198E-4</MEAN_MOTION_DOT><MEAN_MOTION_DDOT>0</MEAN_MOTION_DDOT></tleParameters></data></segment></body></omm>
<omm id="CCSDS_OMM_VERS" version="2.0">
<header><CREATION_DATE/><ORIGINATOR/></header><body><segment><metadata><OBJECT_NAME>IRIDIUM 38</OBJECT_NAME><OBJECT_ID>1997-069E</OBJECT_ID><CENTER_NAME>EARTH</CENTER_NAME><REF_FRAME>TEME</REF_FRAME><TIME_SYSTEM>UTC</TIME_SYSTEM><MEAN_ELEMENT_THEORY>SGP4</MEAN_ELEMENT_THEORY></metadata><data><meanElements><EPOCH>2024-11-17T18:15:43.989120</EPOCH><MEAN_MOTION>14.37710005</MEAN_MOTION><ECCENTRICITY>.0004141</ECCENTRICITY><INCLINATION>86.3932</INCLINATION><RA_OF_ASC_NODE>322.1344</RA_OF_ASC_NODE><ARG_OF_PERICENTER>81.9113</ARG_OF_PERICENTER><MEAN_ANOMALY>278.2554</MEAN_ANOMALY></meanElements><tleParameters><EPHEMERIS_TYPE>0</EPHEMERIS_TYPE><CLASSIFICATION_TYPE>U</CLASSIFICATION_TYPE><NORAD_CAT_ID>25043</NORAD_CAT_ID><ELEMENT_SET_NO>999</ELEMENT_SET_NO><REV_AT_EPOCH>41557</REV_AT_EPOCH><BSTAR>.26645E-3</BSTAR><MEAN_MOTION_DOT>.82E-5</MEAN_MOTION_DOT><MEAN_MOTION_DDOT>0</MEAN_MOTION_DDOT></tleParameters></data></segment></body></omm>
<omm id="CCSDS_OMM_VERS" version="2.0">
<header><CREATION_DATE/><ORIGINATOR/></header><body><segment><metadata><OBJECT_NAME>IRIDIUM 42</OBJECT_NAME><OBJECT_ID>1997-077A</OBJECT_ID><CENTER_NAME>EARTH</CENTER_NAME><REF_FRAME>TEME</REF_FRAME><TIME_SYSTEM>UTC</TIME_SYSTEM><MEAN_ELEMENT_THEORY>SGP4</MEAN_ELEMENT_THEORY></metadata><data><meanElements><EPOCH>2024-11-17T22:15:46.703232</EPOCH><MEAN_MOTION>14.35977241</MEAN_MOTION><ECCENTRICITY>.0002991</ECCENTRICITY><INCLINATION>86.3942</INCLINATION><RA_OF_ASC_NODE>327.9741</RA_OF_ASC_NODE><ARG_OF_PERICENTER>90.1257</ARG_OF_PERICENTER><MEAN_ANOMALY>270.0283</MEAN_ANOMALY></meanElements><tleParameters><EPHEMERIS_TYPE>0</EPHEMERIS_TYPE><CLASSIFICATION_TYPE>U</CLASSIFICATION_TYPE><NORAD_CAT_ID>25077</NORAD_CAT_ID><ELEMENT_SET_NO>999</ELEMENT_SET_NO><REV_AT_EPOCH>41087</REV_AT_EPOCH><BSTAR>.24151E-3</BSTAR><MEAN_MOTION_DOT>.72E-5</MEAN_MOTION_DOT><MEAN_MOTION_DDOT>0</MEAN_MOTION_DDOT></tleParameters></data></segment></body></omm>
<omm id="CCSDS_OMM_VERS" version="2.0">
<header><CREATION_DATE/><ORIGINATOR/></header><body><segment><metadata><OBJECT_NAME>IRIDIUM 44</OBJECT_NAME><OBJECT_ID>1997-077B</OBJECT_ID><CENTER_NAME>EARTH</CENTER_NAME><REF_FRAME>TEME</REF_FRAME><TIME_SYSTEM>UTC</TIME_SYSTEM><MEAN_ELEMENT_THEORY>SGP4</MEAN_ELEMENT_THEORY></metadata><data><meanElements><EPOCH>2024-11-17T21:28:17.347872</EPOCH><MEAN_MOTION>14.39840377</MEAN_MOTION><ECCENTRICITY>.0003067</ECCENTRICITY><INCLINATION>86.3919</INCLINATION><RA_OF_ASC_NODE>310.4682</RA_OF_ASC_NODE><ARG_OF_PERICENTER>51.9621</ARG_OF_PERICENTER><MEAN_ANOMALY>308.1854</MEAN_ANOMALY></meanElements><tleParameters><EPHEMERIS_TYPE>0</EPHEMERIS_TYPE><CLASSIFICATION_TYPE>U</CLASSIFICATION_TYPE><NORAD_CAT_ID>25078</NORAD_CAT_ID><ELEMENT_SET_NO>999</ELEMENT_SET_NO><REV_AT_EPOCH>41329</REV_AT_EPOCH><BSTAR>.27649E-3</BSTAR><MEAN_MOTION_DOT>.887E-5</MEAN_MOTION_DOT><MEAN_MOTION_DDOT>0</MEAN_MOTION_DDOT></tleParameters></data></segment></body></omm>
<omm id="CCSDS_OMM_VERS" version="2.0">
<header><CREATION_DATE/><ORIGINATOR/></header><body><segment><metadata><OBJECT_NAME>IRIDIUM 45</OBJECT_NAME><OBJECT_ID>1997-082A</OBJECT_ID><CENTER_NAME>EARTH</CENTER_NAME><REF_FRAME>TEME</REF_FRAME><TIME_SYSTEM>UTC</TIME_SYSTEM><MEAN_ELEMENT_THEORY>SGP4</MEAN_ELEMENT_THEORY></metadata><data><meanElements><EPOCH>2024-11-18T06:18:28.055808</EPOCH><MEAN_MOTION>15.11576037</MEAN_MOTION><ECCENTRICITY>.0141878</ECCENTRICITY><INCLINATION>86.3626</INCLINATION><RA_OF_ASC_NODE>149.4588</RA_OF_ASC_NODE><ARG_OF_PERICENTER>36.6137</ARG_OF_PERICENTER><MEAN_ANOMALY>324.4694</MEAN_ANOMALY></meanElements><tleParameters><EPHEMERIS_TYPE>0</EPHEMERIS_TYPE><CLASSIFICATION_TYPE>U</CLASSIFICATION_TYPE><NORAD_CAT_ID>25104</NORAD_CAT_ID><ELEMENT_SET_NO>999</ELEMENT_SET_NO><REV_AT_EPOCH>42031</REV_AT_EPOCH><BSTAR>.70331E-3</BSTAR><MEAN_MOTION_DOT>.15295E-3</MEAN_MOTION_DOT><MEAN_MOTION_DDOT>0</MEAN_MOTION_DDOT></tleParameters></data></segment></body></omm>
<omm id="CCSDS_OMM_VERS" version="2.0">
<header><CREATION_DATE/><ORIGINATOR/></header><body><segment><metadata><OBJECT_NAME>IRIDIUM 24</OBJECT_NAME><OBJECT_ID>1997-082B</OBJECT_ID><CENTER_NAME>EARTH</CENTER_NAME><REF_FRAME>TEME</REF_FRAME><TIME_SYSTEM>UTC</TIME_SYSTEM><MEAN_ELEMENT_THEORY>SGP4</MEAN_ELEMENT_THEORY></metadata><data><meanElements><EPOCH>2024-11-18T06:37:40.061568</EPOCH><MEAN_MOTION>14.41669674</MEAN_MOTION><ECCENTRICITY>.0013241</ECCENTRICITY><INCLINATION>86.3937</INCLINATION><RA_OF_ASC_NODE>169.6900</RA_OF_ASC_NODE><ARG_OF_PERICENTER>59.6273</ARG_OF_PERICENTER><MEAN_ANOMALY>300.6234</MEAN_ANOMALY></meanElements><tleParameters><EPHEMERIS_TYPE>0</EPHEMERIS_TYPE><CLASSIFICATION_TYPE>U</CLASSIFICATION_TYPE><NORAD_CAT_ID>25105</NORAD_CAT_ID><ELEMENT_SET_NO>999</ELEMENT_SET_NO><REV_AT_EPOCH>41307</REV_AT_EPOCH><BSTAR>.2013E-3</BSTAR><MEAN_MOTION_DOT>.676E-5</MEAN_MOTION_DOT><MEAN_MOTION_DDOT>0</MEAN_MOTION_DDOT></tleParameters></data></segment></body></omm>
<omm id="CCSDS_OMM_VERS" version="2.0">
<header><CREATION_DATE/><ORIGINATOR/></header><body><segment><metadata><OBJECT_NAME>IRIDIUM 51</OBJECT_NAME><OBJECT_ID>1998-018A</OBJECT_ID><CENTER_NAME>EARTH</CENTER_NAME><REF_FRAME>TEME</REF_FRAME><TIME_SYSTEM>UTC</TIME_SYSTEM><MEAN_ELEMENT_THEORY>SGP4</MEAN_ELEMENT_THEORY></metadata><data><meanElements><EPOCH>2024-11-18T12:02:27.362112</EPOCH><MEAN_MOTION>15.21993454</MEAN_MOTION><ECCENTRICITY>.0120077</ECCENTRICITY><INCLINATION>86.3912</INCLINATION><RA_OF_ASC_NODE>158.6665</RA_OF_ASC_NODE><ARG_OF_PERICENTER>330.9741</ARG_OF_PERICENTER><MEAN_ANOMALY>28.4859</MEAN_ANOMALY></meanElements><tleParameters><EPHEMERIS_TYPE>0</EPHEMERIS_TYPE><CLASSIFICATION_TYPE>U</CLASSIFICATION_TYPE><NORAD_CAT_ID>25262</NORAD_CAT_ID><ELEMENT_SET_NO>999</ELEMENT_SET_NO><REV_AT_EPOCH>41501</REV_AT_EPOCH><BSTAR>.78209E-3</BSTAR><MEAN_MOTION_DOT>.21864E-3</MEAN_MOTION_DOT><MEAN_MOTION_DDOT>0</MEAN_MOTION_DDOT></tleParameters></data></segment></body></omm>

</ndm>
