IRIDIUM 36              
1 24967U 97056C   24323.15181197  .00000844  00000+0  27687-3 0  9990
2 24967  86.3953 261.6013 0002343  79.2872 280.8589 14.37230777421907
IRIDIUM 39              
1 25042U 97069D   24323.01451111  .00001198  00000+0  31274-3 0  9990
2 25042  86.3874 301.6808 0015892 295.6777  64.2785 14.48620946418644
IRIDIUM 38              
1 25043U 97069E   24322.76092580  .00000820  00000+0  26645-3 0  9990
2 25043  86.3932 322.1344 0004141  81.9113 278.2554 14.37710005415572
IRIDIUM 42              
1 25077U 97077A   24322.92762388  .00000720  00000+0  24151-3 0  9993
2 25077  86.3942 327.9741 0002991  90.1257 270.0283 14.35977241410878
IRIDIUM 44              
1 25078U 97077B   24322.89464523  .00000887  00000+0  27649-3 0  9999
2 25078  86.3919 310.4682 0003067  51.9621 308.1854 14.39840377413298
IRIDIUM 45              
1 25104U 97082A   24323.26282472  .00015295  00000+0  70331-3 0  9993
2 25104  86.3626 149.4588 0141878  36.6137 324.4694 15.11576037420317
IRIDIUM 24              
1 25105U 97082B   24323.27615812  .00000676  00000+0  20130-3 0  9992
2 25105  86.3937 169.6900 0013241  59.6273 300.6234 14.41669674413076
IRIDIUM 51              
1 25262U 98018A   24323.50170558  .00021864  00000+0  78209-3 0  9997
2 25262  86.3912 158.6665 0120077 330.9741  28.4859 15.21993454415019
